NORAD_CAT_ID,OBJECT_NAME,OBJECT_TYPE,EPOCH,MEAN_MOTION,ECCENTRICITY,INCLINATION,RA_OF_ASC_NODE,ARG_OF_PERICENTER,MEAN_ANOMALY,BSTAR,MEAN_MOTION_DOT,MEAN_MOTION_DDOT,TLE_LINE0,TLE_LINE1,TLE_LINE2,SEMIMAJOR_AXIS,PERIOD,APOGEE,PERIGEE,DECAYED
52871.0,STARLINK-4207,PAYLOAD,2024-08-10 20:55:23,15.08851137,0.0001669,53.2164,79.0625,102.2157,257.9022,0.00092598,0.00014484,0.0,0 STARLINK-4207,1 52871U 22062AT  24223.87180238  .00014484  00000-0  92598-3 0  9992,2 52871  53.2164  79.0625 0001669 102.2157 257.9022 15.08851137119620,6917.846,95.437,540.866,538.557,0.0
52871.0,STARLINK-4207,PAYLOAD,2024-08-11 20:46:10,15.08847713,0.0001397,53.2167,74.6076,99.4807,260.6343,0.00046998,7.201e-05,0.0,0 STARLINK-4207,1 52871U 22062AT  24224.86540022  .00007201  00000-0  46998-3 0  9995,2 52871  53.2167  74.6076 0001397  99.4807 260.6343 15.08847713119779,6917.857,95.437,540.688,538.755,0.0
52871.0,STARLINK-4207,PAYLOAD,2024-08-12 14:15:25,15.08844188,0.0001495,53.2177,71.3342,102.6453,257.4707,0.00024261,3.576e-05,0.0,0 STARLINK-4207,1 52871U 22062AT  24225.59404122  .00003576  00000-0  24261-3 0  9996,2 52871  53.2177  71.3342 0001495 102.6453 257.4707 15.08844188119392,6917.868,95.437,540.767,538.698,0.0
52871.0,STARLINK-4207,PAYLOAD,2024-08-12 20:36:56,15.08866856,8.03e-05,53.218,70.1482,65.0976,295.01,0.00070964,0.00011032,0.0,0 STARLINK-4207,1 52871U 22062AT  24225.85899184  .00011032  00000-0  70964-3 0  9998,2 52871  53.2180  70.1482 0000803  65.0976 295.0100 15.08866856119438,6917.798,95.436,540.219,539.108,0.0
52871.0,STARLINK-4207,PAYLOAD,2024-08-12 23:47:42,15.08871042,0.0001318,53.2179,69.5533,79.6218,280.4923,0.00080728,0.00012594,0.0,0 STARLINK-4207,1 52871U 22062AT  24225.99146971  .00012594  00000-0  80728-3 0  9995,2 52871  53.2179  69.5533 0001318  79.6218 280.4923 15.08871042119947,6917.786,95.436,540.562,538.739,0.0
52871.0,STARLINK-4207,PAYLOAD,2024-08-13 14:06:14,15.08782023,0.0001815,53.2146,66.8775,93.1903,266.9297,-0.0012995,-0.00020878,0.0,0 STARLINK-4207,1 52871U 22062AT  24226.58766209 -.00020878  00000-0 -12995-2 0  9999,2 52871  53.2146  66.8775 0001815  93.1903 266.9297 15.08782023120038,6918.058,95.441,541.178,538.667,0.0
52871.0,STARLINK-4207,PAYLOAD,2024-08-13 20:27:47,15.08788975,9e-05,53.2158,65.6868,70.345,289.7639,-0.00068245,-0.00011117,0.0,0 STARLINK-4207,1 52871U 22062AT  24226.85262895 -.00011117  00000-0 -68245-3 0  9997,2 52871  53.2158  65.6868 0000900  70.3450 289.7639 15.08788975120078,6918.036,95.441,540.524,539.279,0.0
52871.0,STARLINK-4207,PAYLOAD,2024-08-14 06:00:05,15.08836772,0.0001206,53.2151,63.9034,91.746,268.3671,0.00052746,8.116e-05,0.0,0 STARLINK-4207,1 52871U 22062AT  24227.25006132  .00008116  00000-0  52746-3 0  9994,2 52871  53.2151  63.9034 0001206  91.7460 268.3671 15.08836772120130,6917.89,95.438,540.59,538.921,0.0
52871.0,STARLINK-4207,PAYLOAD,2024-08-14 21:53:56,15.08863827,0.0001151,53.2167,60.9305,85.3418,274.7705,0.00098263,0.00015395,0.0,0 STARLINK-4207,1 52871U 22062AT  24227.91246073  .00015395  00000-0  98263-3 0  9998,2 52871  53.2167  60.9305 0001151  85.3418 274.7705 15.08863827119741,6917.808,95.436,540.469,538.876,0.0
52871.0,STARLINK-4207,PAYLOAD,2024-08-15 05:50:51,15.08862824,0.0001139,53.2165,59.4438,80.009,280.1031,0.00028054,4.182e-05,0.0,0 STARLINK-4207,1 52871U 22062AT  24228.24365568  .00004182  00000-0  28054-3 0  9999,2 52871  53.2165  59.4438 0001139  80.0090 280.1031 15.08862824119797,6917.811,95.436,540.464,538.888,0.0
52871.0,STARLINK-4207,PAYLOAD,2024-08-16 05:41:38,15.0884576,0.0001253,53.218,54.9835,80.8631,279.2503,6.156e-06,-1.9e-06,0.0,0 STARLINK-4207,1 52871U 22062AT  24229.23725549 -.00000190  00000-0  61560-5 0  9995,2 52871  53.2180  54.9835 0001253  80.8631 279.2503 15.08845760120437,6917.863,95.437,540.595,538.861,0.0
52871.0,STARLINK-4207,PAYLOAD,2024-08-17 21:26:17,15.0884807,0.000187,53.2164,47.5475,81.9042,278.2163,0.00028692,4.282e-05,0.0,0 STARLINK-4207,1 52871U 22062AT  24230.89325610  .00004282  00000-0  28692-3 0  9996,2 52871  53.2164  47.5475 0001870  81.9042 278.2163 15.08848070120191,6917.856,95.437,541.014,538.427,0.0
52871.0,STARLINK-4207,PAYLOAD,2024-08-18 21:17:03,15.08851255,5.88e-05,53.2173,43.0882,89.3548,270.7511,0.00032667,4.917e-05,0.0,0 STARLINK-4207,1 52871U 22062AT  24231.88684325  .00004917  00000-0  32667-3 0  9999,2 52871  53.2173  43.0882 0000588  89.3548 270.7511 15.08851255120342,6917.846,95.437,540.118,539.304,0.0
52871.0,STARLINK-4207,PAYLOAD,2024-08-19 21:07:52,15.08828935,0.0002019,53.2182,38.6274,87.3275,272.7949,-6.3388e-05,-1.297e-05,0.0,0 STARLINK-4207,1 52871U 22062AT  24232.88046517 -.00001297  00000-0 -63388-4 0  9990,2 52871  53.2182  38.6274 0002019  87.3275 272.7949 15.08828935120989,6917.914,95.438,541.176,538.382,0.0
52871.0,STARLINK-4207,PAYLOAD,2024-08-20 14:37:06,15.08846174,0.0001483,53.2176,35.3553,109.5896,250.5256,-9.2878e-05,-1.766e-05,0.0,0 STARLINK-4207,1 52871U 22062AT  24233.60909904 -.00001766  00000-0 -92878-4 0  9996,2 52871  53.2176  35.3553 0001483 109.5896 250.5256 15.08846174120605,6917.862,95.437,540.752,538.701,0.0
52871.0,STARLINK-4207,PAYLOAD,2024-08-20 17:47:52,15.08840534,0.0001383,53.2177,34.7619,100.2436,259.8712,4.0404e-05,3.55e-06,0.0,0 STARLINK-4207,1 52871U 22062AT  24233.74157746  .00000355  00000-0  40404-4 0  9999,2 52871  53.2177  34.7619 0001383 100.2436 259.8712 15.08840534121119,6917.879,95.438,540.7,538.787,0.0
52871.0,STARLINK-4207,PAYLOAD,2024-08-21 11:17:06,15.0885754,0.0001394,53.2177,31.49,92.9637,267.1514,0.00050926,7.83e-05,0.0,0 STARLINK-4207,1 52871U 22062AT  24234.47021210  .00007830  00000-0  50926-3 0  9990,2 52871  53.2177  31.4900 0001394  92.9637 267.1514 15.08857540121227,6917.827,95.436,540.656,538.727,0.0
52871.0,STARLINK-4207,PAYLOAD,2024-08-21 14:27:52,15.08863242,0.0001377,53.2178,30.8951,94.8141,265.3008,0.0006032,9.331e-05,0.0,0 STARLINK-4207,1 52871U 22062AT  24234.60269098  .00009331  00000-0  60320-3 0  9990,2 52871  53.2178  30.8951 0001377  94.8141 265.3008 15.08863242120750,6917.809,95.436,540.627,538.722,0.0
52871.0,STARLINK-4207,PAYLOAD,2024-08-21 17:38:38,15.08875991,0.0001344,53.2181,30.3004,91.0703,269.0443,0.000824,0.00012863,0.0,0 STARLINK-4207,1 52871U 22062AT  24234.73516770  .00012863  00000-0  82400-3 0  9993,2 52871  53.2181  30.3004 0001344  91.0703 269.0443 15.08875991120775,6917.77,95.435,540.565,538.706,0.0
